CCSDS_OMM_VERS = 2.0
CREATION_DATE  = 
ORIGINATOR     = 

OBJECT_NAME    = STARLINK-35729
OBJECT_ID      = 2025-280S
CENTER_NAME    = EARTH
REF_FRAME      = TEME
TIME_SYSTEM    = UTC
MEAN_ELEMENT_THEORY = SGP/SGP4

EPOCH          = 2025-12-13T14:53:06.239904
MEAN_MOTION    = 15.78096509
ECCENTRICITY   = .00054323
INCLINATION    = 69.9923
RA_OF_ASC_NODE = 196.2923
ARG_OF_PERICENTER = 269.6342
MEAN_ANOMALY   = 90.4235

EPHEMERIS_TYPE = 0
CLASSIFICATION_TYPE = U
NORAD_CAT_ID   = 66837
ELEMENT_SET_NO = 999
REV_AT_EPOCH   = 306
BSTAR          = -.96715229E-2
MEAN_MOTION_DOT = -.1464154E-1
MEAN_MOTION_DDOT = 0

CCSDS_OMM_VERS = 2.0
CREATION_DATE  = 
ORIGINATOR     = 

OBJECT_NAME    = STARLINK-35886
OBJECT_ID      = 2025-280T
CENTER_NAME    = EARTH
REF_FRAME      = TEME
TIME_SYSTEM    = UTC
MEAN_ELEMENT_THEORY = SGP/SGP4

EPOCH          = 2025-12-13T20:56:38.569632
MEAN_MOTION    = 15.79843613
ECCENTRICITY   = .00262183
INCLINATION    = 69.9923
RA_OF_ASC_NODE = 195.5660
ARG_OF_PERICENTER = 248.0128
MEAN_ANOMALY   = 111.8286

EPHEMERIS_TYPE = 0
CLASSIFICATION_TYPE = U
NORAD_CAT_ID   = 66838
ELEMENT_SET_NO = 999
REV_AT_EPOCH   = 310
BSTAR          = -.40480804E-3
MEAN_MOTION_DOT = -.76296E-3
MEAN_MOTION_DDOT = 0

CCSDS_OMM_VERS = 2.0
CREATION_DATE  = 
ORIGINATOR     = 

OBJECT_NAME    = STARLINK-35717
OBJECT_ID      = 2025-280U
CENTER_NAME    = EARTH
REF_FRAME      = TEME
TIME_SYSTEM    = UTC
MEAN_ELEMENT_THEORY = SGP/SGP4

EPOCH          = 2025-12-13T21:00:00.384480
MEAN_MOTION    = 15.71268255
ECCENTRICITY   = .00258236
INCLINATION    = 69.9902
RA_OF_ASC_NODE = 195.5737
ARG_OF_PERICENTER = 70.1199
MEAN_ANOMALY   = 290.2777

EPHEMERIS_TYPE = 0
CLASSIFICATION_TYPE = U
NORAD_CAT_ID   = 66839
ELEMENT_SET_NO = 999
REV_AT_EPOCH   = 310
BSTAR          = -.98729417E-3
MEAN_MOTION_DOT = -.126513E-2
MEAN_MOTION_DDOT = 0

CCSDS_OMM_VERS = 2.0
CREATION_DATE  = 
ORIGINATOR     = 

OBJECT_NAME    = STARLINK-35837
OBJECT_ID      = 2025-280V
CENTER_NAME    = EARTH
REF_FRAME      = TEME
TIME_SYSTEM    = UTC
MEAN_ELEMENT_THEORY = SGP/SGP4

EPOCH          = 2025-12-13T14:52:14.427552
MEAN_MOTION    = 15.71978660
ECCENTRICITY   = .00318763
INCLINATION    = 69.9948
RA_OF_ASC_NODE = 196.2866
ARG_OF_PERICENTER = 356.9580
MEAN_ANOMALY   = 3.1417

EPHEMERIS_TYPE = 0
CLASSIFICATION_TYPE = U
NORAD_CAT_ID   = 66840
ELEMENT_SET_NO = 999
REV_AT_EPOCH   = 306
BSTAR          = -.81281382E-1
MEAN_MOTION_DOT = -.8921658E-1
MEAN_MOTION_DDOT = 0

CCSDS_OMM_VERS = 2.0
CREATION_DATE  = 
ORIGINATOR     = 

OBJECT_NAME    = STARLINK-35715
OBJECT_ID      = 2025-280W
CENTER_NAME    = EARTH
REF_FRAME      = TEME
TIME_SYSTEM    = UTC
MEAN_ELEMENT_THEORY = SGP/SGP4

EPOCH          = 2025-12-13T16:22:58.143360
MEAN_MOTION    = 15.77035954
ECCENTRICITY   = .00049355
INCLINATION    = 69.9923
RA_OF_ASC_NODE = 196.1076
ARG_OF_PERICENTER = 283.5605
MEAN_ANOMALY   = 76.5044

EPHEMERIS_TYPE = 0
CLASSIFICATION_TYPE = U
NORAD_CAT_ID   = 66841
ELEMENT_SET_NO = 999
REV_AT_EPOCH   = 307
BSTAR          = -.44798272E-2
MEAN_MOTION_DOT = -.676243E-2
MEAN_MOTION_DDOT = 0

CCSDS_OMM_VERS = 2.0
CREATION_DATE  = 
ORIGINATOR     = 

OBJECT_NAME    = STARLINK-35769
OBJECT_ID      = 2025-280X
CENTER_NAME    = EARTH
REF_FRAME      = TEME
TIME_SYSTEM    = UTC
MEAN_ELEMENT_THEORY = SGP/SGP4

EPOCH          = 2025-12-13T19:23:51.839232
MEAN_MOTION    = 15.78755841
ECCENTRICITY   = .00084423
INCLINATION    = 69.9895
RA_OF_ASC_NODE = 195.7444
ARG_OF_PERICENTER = 207.7954
MEAN_ANOMALY   = 152.2796

EPHEMERIS_TYPE = 0
CLASSIFICATION_TYPE = U
NORAD_CAT_ID   = 66842
ELEMENT_SET_NO = 999
REV_AT_EPOCH   = 309
BSTAR          = -.21757449E-1
MEAN_MOTION_DOT = -.3238956E-1
MEAN_MOTION_DDOT = 0

CCSDS_OMM_VERS = 2.0
CREATION_DATE  = 
ORIGINATOR     = 

OBJECT_NAME    = STARLINK-35997
OBJECT_ID      = 2025-280Y
CENTER_NAME    = EARTH
REF_FRAME      = TEME
TIME_SYSTEM    = UTC
MEAN_ELEMENT_THEORY = SGP/SGP4

EPOCH          = 2025-12-13T20:54:31.984128
MEAN_MOTION    = 15.78636075
ECCENTRICITY   = .00097155
INCLINATION    = 69.9919
RA_OF_ASC_NODE = 195.5632
ARG_OF_PERICENTER = 259.3170
MEAN_ANOMALY   = 100.6936

EPHEMERIS_TYPE = 0
CLASSIFICATION_TYPE = U
NORAD_CAT_ID   = 66843
ELEMENT_SET_NO = 999
REV_AT_EPOCH   = 310
BSTAR          = -.89371324E-3
MEAN_MOTION_DOT = -.154393E-2
MEAN_MOTION_DDOT = 0

CCSDS_OMM_VERS = 2.0
CREATION_DATE  = 
ORIGINATOR     = 

OBJECT_NAME    = STARLINK-36073
OBJECT_ID      = 2025-280Z
CENTER_NAME    = EARTH
REF_FRAME      = TEME
TIME_SYSTEM    = UTC
MEAN_ELEMENT_THEORY = SGP/SGP4

EPOCH          = 2025-12-13T19:24:42.692544
MEAN_MOTION    = 15.76542308
ECCENTRICITY   = .00032851
INCLINATION    = 69.9917
RA_OF_ASC_NODE = 195.7449
ARG_OF_PERICENTER = 243.2459
MEAN_ANOMALY   = 116.8404

EPHEMERIS_TYPE = 0
CLASSIFICATION_TYPE = U
NORAD_CAT_ID   = 66844
ELEMENT_SET_NO = 999
REV_AT_EPOCH   = 306
BSTAR          = -.48670537E-2
MEAN_MOTION_DOT = -.714933E-2
MEAN_MOTION_DDOT = 0

CCSDS_OMM_VERS = 2.0
CREATION_DATE  = 
ORIGINATOR     = 

OBJECT_NAME    = STARLINK-36068
OBJECT_ID      = 2025-280AA
CENTER_NAME    = EARTH
REF_FRAME      = TEME
TIME_SYSTEM    = UTC
MEAN_ELEMENT_THEORY = SGP/SGP4

EPOCH          = 2025-12-13T22:25:34.764096
MEAN_MOTION    = 15.76202960
ECCENTRICITY   = .00063765
INCLINATION    = 69.9917
RA_OF_ASC_NODE = 195.3786
ARG_OF_PERICENTER = 311.2733
MEAN_ANOMALY   = 48.7916

EPHEMERIS_TYPE = 0
CLASSIFICATION_TYPE = U
NORAD_CAT_ID   = 66845
ELEMENT_SET_NO = 999
REV_AT_EPOCH   = 311
BSTAR          = -.18241243E-2
MEAN_MOTION_DOT = -.278079E-2
MEAN_MOTION_DDOT = 0

CCSDS_OMM_VERS = 2.0
CREATION_DATE  = 
ORIGINATOR     = 

OBJECT_NAME    = STARLINK-36055
OBJECT_ID      = 2025-280AB
CENTER_NAME    = EARTH
REF_FRAME      = TEME
TIME_SYSTEM    = UTC
MEAN_ELEMENT_THEORY = SGP/SGP4

EPOCH          = 2025-12-13T17:51:20.169216
MEAN_MOTION    = 15.79864364
ECCENTRICITY   = .00146728
INCLINATION    = 69.9914
RA_OF_ASC_NODE = 195.9190
ARG_OF_PERICENTER = 251.2931
MEAN_ANOMALY   = 108.6677

EPHEMERIS_TYPE = 0
CLASSIFICATION_TYPE = U
NORAD_CAT_ID   = 66846
ELEMENT_SET_NO = 999
REV_AT_EPOCH   = 308
BSTAR          = .34197302E-2
MEAN_MOTION_DOT = .687933E-2
MEAN_MOTION_DDOT = 0

CCSDS_OMM_VERS = 2.0
CREATION_DATE  = 
ORIGINATOR     = 

OBJECT_NAME    = STARLINK-36061
OBJECT_ID      = 2025-280AC
CENTER_NAME    = EARTH
REF_FRAME      = TEME
TIME_SYSTEM    = UTC
MEAN_ELEMENT_THEORY = SGP/SGP4

EPOCH          = 2025-12-13T17:51:19.527264
MEAN_MOTION    = 15.77396097
ECCENTRICITY   = .00054047
INCLINATION    = 69.9917
RA_OF_ASC_NODE = 195.9194
ARG_OF_PERICENTER = 250.0033
MEAN_ANOMALY   = 110.0585

EPHEMERIS_TYPE = 0
CLASSIFICATION_TYPE = U
NORAD_CAT_ID   = 66847
ELEMENT_SET_NO = 999
REV_AT_EPOCH   = 308
BSTAR          = -.13093764E-1
MEAN_MOTION_DOT = -.1895367E-1
MEAN_MOTION_DDOT = 0

CCSDS_OMM_VERS = 2.0
CREATION_DATE  = 
ORIGINATOR     = 

OBJECT_NAME    = STARLINK-36091
OBJECT_ID      = 2025-281A
CENTER_NAME    = EARTH
REF_FRAME      = TEME
TIME_SYSTEM    = UTC
MEAN_ELEMENT_THEORY = SGP/SGP4

EPOCH          = 2025-12-13T17:15:22.743072
MEAN_MOTION    = 15.88891532
ECCENTRICITY   = .00021093
INCLINATION    = 43.0005
RA_OF_ASC_NODE = 116.3275
ARG_OF_PERICENTER = 292.5122
MEAN_ANOMALY   = 67.5529

EPHEMERIS_TYPE = 0
CLASSIFICATION_TYPE = U
NORAD_CAT_ID   = 66848
ELEMENT_SET_NO = 999
REV_AT_EPOCH   = 295
BSTAR          = -.74086338E-3
MEAN_MOTION_DOT = -.213288E-2
MEAN_MOTION_DDOT = 0

