STARLINK-35729          
1 66837U 25280S   25347.62021111 -.01464154  00000+0 -96715-2 0  9998
2 66837  69.9923 196.2923 0005432 269.6342  90.4235 15.78096509  3060
STARLINK-35886          
1 66838U 25280T   25347.87266863 -.00076296  00000+0 -40481-3 0  9996
2 66838  69.9923 195.5660 0026218 248.0128 111.8286 15.79843613  3105
STARLINK-35717          
1 66839U 25280U   25347.87500445 -.00126513  00000+0 -98729-3 0  9990
2 66839  69.9902 195.5737 0025823  70.1199 290.2777 15.71268255  3103
STARLINK-35837          
1 66840U 25280V   25347.61961143 -.08921658  00000+0 -81281-1 0  9994
2 66840  69.9948 196.2866 0031876 356.9580   3.1417 15.71978660  3065
STARLINK-35715          
1 66841U 25280W   25347.68261740 -.00676243  00000+0 -44798-2 0  9990
2 66841  69.9923 196.1076 0004935 283.5605  76.5044 15.77035954  3077
STARLINK-35769          
1 66842U 25280X   25347.80823888 -.03238956  00000+0 -21757-1 0  9999
2 66842  69.9895 195.7444 0008442 207.7954 152.2796 15.78755841  3095
STARLINK-35997          
1 66843U 25280Y   25347.87120352 -.00154393  00000+0 -89371-3 0  9990
2 66843  69.9919 195.5632 0009715 259.3170 100.6936 15.78636075  3109
STARLINK-36073          
1 66844U 25280Z   25347.80882746 -.00714933  00000+0 -48671-2 0  9995
2 66844  69.9917 195.7449 0003285 243.2459 116.8404 15.76542308  3061
STARLINK-36068          
1 66845U 25280AA  25347.93443014 -.00278079  00000+0 -18241-2 0  9997
2 66845  69.9917 195.3786 0006376 311.2733  48.7916 15.76202960  3111
STARLINK-36055          
1 66846U 25280AB  25347.74398344  .00687933  00000+0  34197-2 0  9991
2 66846  69.9914 195.9190 0014672 251.2931 108.6677 15.79864364  3086
STARLINK-36061          
1 66847U 25280AC  25347.74397601 -.01895367  00000+0 -13094-1 0  9994
2 66847  69.9917 195.9194 0005404 250.0033 110.0585 15.77396097  3083
STARLINK-36091          
1 66848U 25281A   25347.71901323 -.00213288  00000+0 -74086-3 0  9990
2 66848  43.0005 116.3275 0002109 292.5122  67.5529 15.88891532  2956
